#dP2024  1  1  0  0  0.00000000     289 d+D   IGS20 FIT AIUB
## 2295  86400.00000000   300.00000000 60310 0.0000000000000
+  120   G01G02G03G04G05G06G07G08G09G10G11G12G13G14G15G16G17
+        G18G19G20G21G22G23G24G25G26G27G28G29G30G31G32R01R02
+        R03R04R05R07R08R09R11R12R13R14R15R16R17R18R19R20R21
+        R22R24R25R26E02E03E04E05E07E08E09E10E11E12E13E14E15
+        E18E19E21E24E25E26E27E30E31E33E34E36C06C07C08C09C10
+        C11C12C13C14C16C19C20C21C22C23C24C25C26C27C28C29C30
+        C32C33C34C35C36C37C38C39C40C41C42C43C44C45C46J02J03
+        J04  0  0  0  0  0  0  0  0  0  0  0  0  0  0  0  0
++         5  5  5  5  5  5  5  5  5  5  5  5  5  5  5  5  5
++         5  5  5  5  5  5  5  5  5 10  5  5  5  5  5  5  5
++         5  5  5  5  5  5  5  5  5  5  5  5  5  5  5  5  5
++         5  5  5  5  5  5  5  5  5  5  5  5  5  5  5  5  5
++         5  5  5  5  5  5  5  5  5  5  5  5  5  5 10  5  5
++         5  5  5  5  5  5  5  5  5  5  5  5  5  5  5  5  5
++         5  5  5  5  5  5  5  5 10  5  5  5  5  5  5  5  5
++         5  0  0  0  0  0  0  0  0  0  0  0  0  0  0  0  0
%c M  cc GPS ccc cccc cccc cccc cccc ccccc ccccc ccccc ccccc
%c cc cc ccc ccc cccc cccc cccc cccc ccccc ccccc ccccc ccccc
%f  1.2500000  1.025000000  0.00000000000  0.000000000000000
%f  0.0000000  0.000000000  0.00000000000  0.000000000000000
%i    0    0    0    0      0      0      0      0         0
%i    0    0    0    0      0      0      0      0         0
/* Center for Orbit Determination in Europe (CODE)                              
/* MGEX orbits and clocks for year-day 2024-0010                                
/* Middle day of a 3-day long-arc multi-GNSS solution                           
/* Systems considered: GPS/GLONASS/Galileo/BeiDou/QZSS                          
/* Product reference - DOI 10.48350/185742                                      
/* PCV:IGS20      OL/AL:FES2014b NONE     YN ORB:CoN CLK:CoN                    
*  2024  1  1 17 25  0.00000000
PG01 -15174.547171 -13091.014717 -17958.249744    165.048648
PG02  -8436.651105 -13966.572080 -20506.432946   -507.165760
PG03 -11513.813051 -23999.512937   -426.229979     96.457918
PG04  -4872.641936 -16889.554632  19880.160556    254.958486
PG05   4207.173542  23531.632743  11303.873804   -156.342910
PG06 -22103.052927   6983.323262  13128.041210    459.265723
PG07 -25362.652954  -6283.979152   6489.812826    -26.653612
PG08   1435.621615 -21951.796450 -14657.930911   -159.942986
PG09 -14340.196483  -5675.383217  21543.299565     45.165555
PG10  15243.726478  -1624.528158 -21532.626331    -67.626812
PG11 -12481.245943  12434.943456  19885.086385   -523.719945
PG12   9760.078956  24743.430492   -585.364505   -463.505101
PG13 -11999.855183  22112.381970  -8363.039913    611.608405
PG14 -17078.036569  -2215.530324 -20242.831819    287.006993
PG15   1413.018788  22359.617013 -14589.407688    112.866930
PG16   3465.117927 -20797.925132  15538.757655   -392.765526
PG17 -19556.103046   8016.872810 -15742.108034    720.852662
PG18  25766.389681   5167.594301   4497.628437   -521.437885
PG19 -20129.314081  14570.180242  -9052.010672    420.607142
PG20  -5628.611172  16537.257424  20111.678274    393.690068
PG21  -4341.871281 -14722.797728 -21261.308488    139.767279
PG22 -13707.157470   6062.519656 -21497.345288     55.690574
PG23  18141.166816  11151.944735 -15974.584881    127.050153
PG24   7691.413870  15212.519417 -20854.847007   -405.456900
PG25  16894.423435  18275.114708   9320.132494    483.711715
PG26   9686.867056 -13510.711389  20504.910107    204.224503
PG27  12176.908129 -23102.696062  -3595.116631      0.415694
PG28  23640.492460  -6443.810360  10217.070312    -86.217647
PG29  12901.452134   7644.529635  21879.998431   -609.215332
PG30 -26316.413031   1345.676415  -4209.263569   -450.596560
PG31  17738.639998 -10442.341575  16797.252892   -227.032360
PG32  19147.440542 -11877.503924 -13701.935214   -601.616662
PR01 -11573.056798   5361.522201  22089.688863     73.489336
PR02  -9617.581957  20975.551790  10995.000877    -22.401638
PR03  -1870.185054  24662.142043  -6331.688714     91.979285
PR04   6330.493866  14699.797133 -19840.966040    217.735884
PR05  11351.002842  -3070.572436 -22621.586401    124.688490
PR07   1370.510503 -24378.438957   7323.097001     72.612623
PR08  -6695.814470 -14397.397600  20008.771890    -73.913735
PR09   7234.975774  -8734.800577  22860.902970    161.974707
PR11 -18679.293812 -17253.471853   2119.223395   -224.891966
PR12 -18853.082386  -6147.865243 -16016.093017     35.096326
PR13  -9169.367742   6655.893209 -22873.376195    -42.894696
PR14   8216.579588  17578.758226 -16543.660695     25.835764
PR15  19069.240516  16929.213241   -617.683768     83.430685
PR16  18926.973346   6327.516896  15870.368903     22.061135
PR17  -2736.535911  11735.939152  22491.111725     48.568342
PR18  13997.312170   5294.748536  20663.175077    119.864034
PR19  23486.032997  -2276.277655   9699.494944   -260.503352
PR20  20113.883398 -10940.468384 -11183.031472   -106.139310
PR21   2410.663578 -11537.368197 -22617.409013    -65.601579
PR22 -14918.898332  -5481.197183 -19924.420578    101.061162
PR24 -19202.244032  12111.173063  11640.212571    -38.251593
PR25   3128.500734 -11889.687699 -22342.301276      9.821019
PR26  -6411.941714 -15117.172525  19546.116329 999999.999999
PE02  -9208.564296  16776.335432 -22596.259683     91.495266
PE03 -18045.214134  23286.138534   2837.872645    -84.105455
PE04   4141.113410 -25109.653019  15117.793408   -293.655587
PE05 -21309.573783   7944.761857  18946.882801   4706.183800
PE07  11830.900085  12554.815376 -24052.304263    -96.135327
PE08  -4726.338759  25256.084218 -14694.704029   -201.302059
PE09 -11618.702569 -12599.219978  24132.286545   -284.067061
PE10 -13569.410552 -14879.044627 -21690.948181   -590.845218
PE11 -23204.248694 -11124.173872 -14641.823823   3279.352210
PE12  -2953.799729 -16167.692594 -24614.227651   -844.167704
PE13  22668.263334  11386.339988  15259.367559    -19.797346
PE14  19559.221577 -24325.871827   1289.045933     -1.673306
PE15   2318.717180  16095.994151  24745.584502    -77.849485
PE18 -19217.316181  14303.191396  -7639.377366    161.814804
PE19  19164.497228 -21971.485271  -5092.155335   -897.938301
PE21  18755.712180   2803.047260  22723.996130   -571.745397
PE24 -17603.762535 -21924.339197  -9225.892891   -518.320643
PE25 -18849.223170  -3202.957000 -22593.724562     -1.126147
PE26  29374.695774   -327.490295  -3624.535139    326.792816
PE27  17810.855349  21613.502515   9603.996517   -238.687883
PE30   6055.566625  27465.675896  -9274.745349   -789.613134
PE31  -6374.467672 -27455.830519   9023.870233    -12.873039
PE33  19606.533650 -11033.195118 -19228.196326      5.230691
PE34 -19055.440214  11349.426173  19602.228997    -86.602674
PE36 -29451.819614    -84.048385   3016.588384   -165.856180
PC06 -16734.998964  25002.703834 -29621.768755     23.927924
PC07  -9109.211300  41043.962215  -1440.591406   -568.689330
PC08   3005.357409  28300.418854  31191.027821    141.958324
PC09  -5312.330847  24806.819069 -33329.539709   -295.471377
PC10  -3999.652091  41488.476473   4221.017910    142.690498
PC11 -24181.173561   2210.829262 -13668.344308    336.267377
PC12 -10311.627274 -11871.294873 -23008.340012    808.809094
PC13   7902.230290  31313.084249  27433.500665    402.656816
PC14 -15508.321536  -3859.405169  22893.573026   -124.896462
PC16 -17671.983284  24420.831491 -29381.911811   -257.858712
PC19  15121.849116  -7440.497854 -22222.447693   -943.676735
PC20  13799.716697  12618.856870 -20696.799883    -25.229050
PC21  -3925.985181 -26883.164148   6431.260669   -965.395978
PC22   7874.992179 -24390.313874 -11066.191729   -164.084275
PC23  -9989.133566  13039.641950 -22565.130102   -795.611866
PC24 -23427.462804 -15073.851197   1317.278871    748.826210
PC25 -23248.007077   -345.070372 -15431.060377    291.737084
PC26 -10743.209670 -19732.975607  16506.170787   -228.626165
PC27   1486.662104  16855.335917  22177.132475    250.576245
PC28 -15573.966963  19037.008783  13192.613953    189.870925
PC29  25246.711611 -10327.013629   5882.287090    222.377304
PC30  18509.101561   5407.187349  20160.170424    -12.554784
PC32   4056.353750  26875.843271  -6293.016065   -548.797099
PC33 -15132.780873   7379.675547  22255.126913   -942.111787
PC34 -19629.582080  -4204.052990 -19402.112793    337.737636
PC35  14801.511739 -19638.195106 -13163.237463    467.191119
PC36  23556.188804   1501.413363  14910.725707    -69.513658
PC37   9770.664412  19967.621067 -16886.010420   -931.421111
PC38  -5627.120018  24838.623238  33680.097442    127.743375
PC39 -23293.267056  24586.583394 -25200.115222     -6.447248
PC40 -16086.533565  38532.188243  -4618.560750    -50.289097
PC41  -8275.613218  23917.292777  11802.183432   -876.699043
PC42 -13391.210870 -14252.703677  19957.372560   -471.801042
PC43 -25336.559070   9615.332827  -6717.621460     54.647636
PC44  -2059.942286 -16976.996858 -22056.284798    340.709205
PC45   9579.925699 -13147.082999  22664.291547    -59.798731
PC46  23805.475034  14604.493105   -368.232421   -112.229773
PJ02 -20852.703085  24017.560080 -23019.918117     -0.893019
PJ03 -28558.196090  27118.872435  20002.335501     -0.107488
PJ04 -27309.279223  29217.791099  19186.613115     75.650356
EOF
